NORAD_CAT_ID,OBJECT_NAME,OBJECT_TYPE,EPOCH,MEAN_MOTION,ECCENTRICITY,INCLINATION,RA_OF_ASC_NODE,ARG_OF_PERICENTER,MEAN_ANOMALY,BSTAR,MEAN_MOTION_DOT,MEAN_MOTION_DDOT,TLE_LINE0,TLE_LINE1,TLE_LINE2,SEMIMAJOR_AXIS,PERIOD,APOGEE,PERIGEE,DECAYED
52360.0,STARLINK-3824,PAYLOAD,2023-11-13 21:50:14,15.08840476,0.0001576,53.2181,30.4623,96.6073,263.5099,6.5063e-05,7.48e-06,0.0,0 STARLINK-3824,1 52360U 22045AF  23317.90988854  .00000748  00000-0  65063-4 0  9999,2 52360  53.2181  30.4623 0001576  96.6073 263.5099 15.08840476 88076,6917.879,95.438,540.834,538.654,0.0
52360.0,STARLINK-3824,PAYLOAD,2023-11-14 12:08:43,15.0883357,0.0001663,53.22,27.7899,101.7637,258.3542,3.5163e-05,2.72e-06,0.0,0 STARLINK-3824,1 52360U 22045AF  23318.50605912  .00000272  00000-0  35163-4 0  9997,2 52360  53.2200  27.7899 0001663 101.7637 258.3542 15.08833570 88165,6917.9,95.438,540.915,538.615,0.0
52360.0,STARLINK-3824,PAYLOAD,2023-11-14 21:41:02,15.08839198,0.0001597,53.2192,26.0037,91.954,268.1635,4.8859e-05,4.9e-06,0.0,0 STARLINK-3824,1 52360U 22045AF  23318.90349554  .00000490  00000-0  48859-4 0  9996,2 52360  53.2192  26.0037 0001597  91.9540 268.1635 15.08839198 88221,6917.883,95.438,540.853,538.643,0.0
52360.0,STARLINK-3824,PAYLOAD,2023-11-15 11:59:29,15.08845692,0.0001521,53.2188,23.3279,94.4889,265.6277,3.4171e-05,2.56e-06,0.0,0 STARLINK-3824,1 52360U 22045AF  23319.49965234  .00000256  00000-0  34171-4 0  9992,2 52360  53.2188  23.3279 0001521  94.4889 265.6277 15.08845692 88315,6917.863,95.437,540.78,538.676,0.0
52360.0,STARLINK-3824,PAYLOAD,2023-11-15 21:31:48,15.08842669,0.0001599,53.2183,21.5414,85.2656,274.8519,-2.3568e-05,-6.63e-06,0.0,0 STARLINK-3824,1 52360U 22045AF  23319.89709223 -.00000663  00000-0 -23568-4 0  9992,2 52360  53.2183  21.5414 0001599  85.2656 274.8519 15.08842669 88374,6917.872,95.437,540.843,538.631,0.0
52360.0,STARLINK-3824,PAYLOAD,2023-11-16 03:53:22,15.08827389,0.0001599,53.218,20.3522,89.2933,270.8242,0.00036985,5.601e-05,0.0,0 STARLINK-3824,1 52360U 22045AF  23320.16206241  .00005601  00000-0  36985-3 0  9997,2 52360  53.2180  20.3522 0001599  89.2933 270.8242 15.08827389 88416,6917.919,95.438,540.89,538.678,0.0
52360.0,STARLINK-3824,PAYLOAD,2023-11-16 08:39:29,15.08870748,0.000193,53.218,19.4607,79.2105,280.9105,-0.00084951,-0.00013794,0.0,0 STARLINK-3824,1 52360U 22045AF  23320.36075561 -.00013794  00000-0 -84951-3 0  9998,2 52360  53.2180  19.4607 0001930  79.2105 280.9105 15.08870748 88448,6917.786,95.436,540.987,538.316,0.0
52360.0,STARLINK-3824,PAYLOAD,2023-11-16 21:22:36,15.08842313,0.0001628,53.2181,17.0832,83.5096,276.6082,0.00013602,1.878e-05,0.0,0 STARLINK-3824,1 52360U 22045AF  23320.89069547  .00001878  00000-0  13602-3 0  9996,2 52360  53.2181  17.0832 0001628  83.5096 276.6082 15.08842313 88526,6917.873,95.437,540.865,538.612,0.0
52360.0,STARLINK-3824,PAYLOAD,2023-11-17 03:44:08,15.08843499,0.0001792,53.2185,15.895,82.9956,277.124,1.9758e-05,2.6e-07,0.0,0 STARLINK-3824,1 52360U 22045AF  23321.15565558  .00000026  00000-0  19758-4 0  9992,2 52360  53.2185  15.8950 0001792  82.9956 277.1240 15.08843499 88569,6917.87,95.437,540.974,538.495,0.0
52360.0,STARLINK-3824,PAYLOAD,2023-11-17 10:05:41,15.08841519,0.0001746,53.2193,14.7053,82.8313,277.2878,8.0748e-05,9.97e-06,0.0,0 STARLINK-3824,1 52360U 22045AF  23321.42061747  .00000997  00000-0  80748-4 0  9997,2 52360  53.2193  14.7053 0001746  82.8313 277.2878 15.08841519 88609,6917.876,95.437,540.949,538.533,0.0
52360.0,STARLINK-3824,PAYLOAD,2023-11-17 21:13:23,15.08841639,0.000175,53.2193,12.6237,83.0092,277.1099,7.953e-05,9.78e-06,0.0,0 STARLINK-3824,1 52360U 22045AF  23321.88429660  .00000978  00000-0  79530-4 0  9995,2 52360  53.2193  12.6237 0001750  83.0092 277.1099 15.08841639 88676,6917.875,95.437,540.951,538.53,0.0
52360.0,STARLINK-3824,PAYLOAD,2023-11-18 09:56:28,15.08842463,0.0001577,53.2182,10.2428,97.0276,263.0896,7.952e-05,9.78e-06,0.0,0 STARLINK-3824,1 52360U 22045AF  23322.41421477  .00000978  00000-0  79520-4 0  9992,2 52360  53.2182  10.2428 0001577  97.0276 263.0896 15.08842463 88750,6917.873,95.437,540.829,538.647,0.0
52360.0,STARLINK-3824,PAYLOAD,2023-11-18 13:07:14,15.08844536,0.0001608,53.2182,9.6479,97.0146,263.103,9.0841e-05,1.158e-05,0.0,0 STARLINK-3824,1 52360U 22045AF  23322.54669281  .00001158  00000-0  90841-4 0  9993,2 52360  53.2182   9.6479 0001608  97.0146 263.1030 15.08844536 88775,6917.867,95.437,540.844,538.619,0.0
52360.0,STARLINK-3824,PAYLOAD,2023-11-19 03:25:43,15.08836934,0.0001667,53.2181,6.9708,99.2337,260.8843,1.8099e-05,0.0,0.0,0 STARLINK-3824,1 52360U 22045AF  23323.14285890 -.00000000  00000-0  18099-4 0  9991,2 52360  53.2181   6.9708 0001667  99.2337 260.8843 15.08836934 88869,6917.89,95.438,540.908,538.602,0.0
52360.0,STARLINK-3824,PAYLOAD,2023-11-19 12:58:01,15.08842891,0.0001493,53.2178,5.187,95.3469,264.7694,7.3235e-05,8.78e-06,0.0,0 STARLINK-3824,1 52360U 22045AF  23323.54029426  .00000878  00000-0  73235-4 0  9991,2 52360  53.2178   5.1870 0001493  95.3469 264.7694 15.08842891 88929,6917.872,95.437,540.769,538.704,0.0
52360.0,STARLINK-3824,PAYLOAD,2023-11-20 09:38:01,15.08845989,0.000146,53.2171,1.3212,94.5922,265.5237,0.00011841,1.597e-05,0.0,0 STARLINK-3824,1 52360U 22045AF  23324.40141167  .00001597  00000-0  11841-3 0  9997,2 52360  53.2171   1.3212 0001460  94.5922 265.5237 15.08845989 89057,6917.862,95.437,540.737,538.717,0.0
52360.0,STARLINK-3824,PAYLOAD,2023-11-20 11:13:25,15.088478,0.0001451,53.2174,1.0239,92.8602,267.2556,0.000118,1.591e-05,0.0,0 STARLINK-3824,1 52360U 22045AF  23324.46765083  .00001591  00000-0  11800-3 0  9991,2 52360  53.2174   1.0239 0001451  92.8602 267.2556 15.08847800 89060,6917.857,95.437,540.725,538.718,0.0
52360.0,STARLINK-3824,PAYLOAD,2023-11-20 19:10:20,15.08844321,0.0001477,53.2177,359.5374,91.7302,268.3859,5.027e-05,5.12e-06,0.0,0 STARLINK-3824,1 52360U 22045AF  23324.79885374  .00000512  00000-0  50270-4 0  9990,2 52360  53.2177 359.5374 0001477  91.7302 268.3859 15.08844321 89116,6917.867,95.437,540.754,538.71,0.0
52360.0,STARLINK-3824,PAYLOAD,2023-11-21 09:28:49,15.08837077,0.0001539,53.2191,356.8649,99.9982,260.1184,4.4073e-05,4.13e-06,0.0,0 STARLINK-3824,1 52360U 22045AF  23325.39502024  .00000413  00000-0  44073-4 0  9999,2 52360  53.2191 356.8649 0001539  99.9982 260.1184 15.08837077 89201,6917.889,95.438,540.819,538.69,0.0
52360.0,STARLINK-3824,PAYLOAD,2023-11-21 11:04:12,15.08839972,0.0001527,53.2174,356.5653,91.9239,268.1928,5.8992e-05,6.51e-06,0.0,0 STARLINK-3824,1 52360U 22045AF  23325.46125820  .00000651  00000-0  58992-4 0  9991,2 52360  53.2174 356.5653 0001527  91.9239 268.1928 15.08839972 89219,6917.88,95.438,540.802,538.689,0.0
52360.0,STARLINK-3824,PAYLOAD,2023-11-22 10:54:58,15.08853937,0.0001558,53.2182,352.1028,79.0009,281.1159,0.000135,1.862e-05,0.0,0 STARLINK-3824,1 52360U 22045AF  23326.45484912  .00001862  00000-0  13500-3 0  9991,2 52360  53.2182 352.1028 0001558  79.0009 281.1159 15.08853937 89366,6917.838,95.437,540.781,538.625,0.0
52360.0,STARLINK-3824,PAYLOAD,2023-11-23 10:45:46,15.08850744,0.0001648,53.2168,347.6429,91.0651,269.053,0.00018307,2.628e-05,0.0,0 STARLINK-3824,1 52360U 22045AF  23327.44845064  .00002628  00000-0  18307-3 0  9991,2 52360  53.2168 347.6429 0001648  91.0651 269.0530 15.08850744 89519,6917.848,95.437,540.853,538.572,0.0
52360.0,STARLINK-3824,PAYLOAD,2023-11-24 07:25:47,15.08831881,0.0002129,53.2182,343.7714,123.2824,236.8372,-0.0001561,-2.771e-05,0.0,0 STARLINK-3824,1 52360U 22045AF  23328.30958239 -.00002771  00000-0 -15610-3 0  9991,2 52360  53.2182 343.7714 0002129 123.2824 236.8372 15.08831881 89645,6917.905,95.438,541.243,538.297,0.0
52360.0,STARLINK-3824,PAYLOAD,2023-11-25 07:16:35,15.08851806,0.0001864,53.2175,339.3187,96.2866,263.8339,0.00046041,7.049e-05,0.0,0 STARLINK-3824,1 52360U 22045AF  23329.30318410  .00007049  00000-0  46041-3 0  9996,2 52360  53.2175 339.3187 0001864  96.2866 263.8339 15.08851806 89790,6917.844,95.437,540.999,538.42,0.0
52360.0,STARLINK-3824,PAYLOAD,2023-11-26 10:18:07,15.08868682,0.0001945,53.2173,334.2576,113.4746,246.6451,0.00066845,0.00010375,0.0,0 STARLINK-3824,1 52360U 22045AF  23330.42925281  .00010375  00000-0  66845-3 0  9991,2 52360  53.2173 334.2576 0001945 113.4746 246.6451 15.08868682 89966,6917.793,95.436,541.003,538.312,0.0
52360.0,STARLINK-3824,PAYLOAD,2023-11-27 03:47:24,15.08797087,0.0001844,53.2184,330.995,66.7576,293.361,-0.00051477,-8.462e-05,0.0,0 STARLINK-3824,1 52360U 22045AF  23331.15791700 -.00008462  00000-0 -51477-3 0  9990,2 52360  53.2184 330.9950 0001844  66.7576 293.3610 15.08797087 90076,6918.012,95.44,541.152,538.601,0.0
52360.0,STARLINK-3824,PAYLOAD,2023-11-27 05:22:47,15.08803858,0.0001841,53.2172,330.6965,71.3402,288.779,-0.00067755,-0.00011045,0.0,0 STARLINK-3824,1 52360U 22045AF  23331.22415843 -.00011045  00000-0 -67755-3 0  9996,2 52360  53.2172 330.6965 0001841  71.3402 288.7790 15.08803858 90085,6917.991,95.44,541.129,538.582,0.0
52360.0,STARLINK-3824,PAYLOAD,2023-11-27 22:52:01,15.08826307,0.0002511,53.2172,327.4184,127.3256,232.7965,7.9936e-05,9.84e-06,0.0,0 STARLINK-3824,1 52360U 22045AF  23331.95279791  .00000984  00000-0  79936-4 0  9999,2 52360  53.2172 327.4184 0002511 127.3256 232.7965 15.08826307 90195,6917.922,95.438,541.524,538.05,0.0
52360.0,STARLINK-3824,PAYLOAD,2023-11-28 09:59:43,15.08854829,0.0002071,53.2171,325.3379,105.0334,255.0887,0.00088723,0.00013866,0.0,0 STARLINK-3824,1 52360U 22045AF  23332.41647367  .00013866  00000-0  88723-3 0  9995,2 52360  53.2171 325.3379 0002071 105.0334 255.0887 15.08854829 90267,6917.835,95.437,541.133,538.267,0.0
52360.0,STARLINK-3824,PAYLOAD,2023-11-29 03:28:57,15.08859549,0.0002079,53.2155,322.0604,109.2147,250.907,0.0005999,9.277e-05,0.0,0 STARLINK-3824,1 52360U 22045AF  23333.14510985  .00009277  00000-0  59990-3 0  9996,2 52360  53.2155 322.0604 0002079 109.2147 250.9070 15.08859549 90374,6917.821,95.436,541.124,538.247,0.0
